     2.10           GLONASS NAV DATA                        RINEX VERSION / TYPE
SPIDER V4,0,0,3554                      2015 03 13 00:36    PGM / RUN BY / DATE 
  2015     2    11   5.122274160385e-009                    CORR TO SYSTEM TIME 
    16                                                      LEAP SECONDS        
                                                            END OF HEADER       
 1 15 02 10 14 45  0.0-1.563355326653D-04 0.000000000000D+00 5.220000000000D+04
    1.803945947266D+04-9.371500015259D-01 1.862645149231D-09 0.000000000000D+00
    1.586562060547D+04-7.236757278442D-01 0.000000000000D+00 1.000000000000D+00
   -8.607513183594D+03-3.298191070557D+00 1.862645149231D-09 0.000000000000D+00
 2 15 02 10 16 15  0.0 1.178896054626D-04 9.094947017729D-13 5.760000000000D+04
    2.222590869141D+04-1.269226074219D+00 1.862645149231D-09 0.000000000000D+00
    8.054534667969D+03-3.521318435669D-01-9.313225746155D-10-4.000000000000D+00
   -9.514079101563D+03-3.256006240845D+00 1.862645149231D-09 0.000000000000D+00
 3 15 02 10 17 45  0.0 3.494136035442D-05 0.000000000000D+00 6.300000000000D+04
    2.323549511719D+04-1.430724143982D+00 9.313225746155D-10 0.000000000000D+00
   -4.342534179688D+02 2.003889083862D-01-9.313225746155D-10 5.000000000000D+00
   -1.046037158203D+04-3.179241180420D+00 1.862645149231D-09 0.000000000000D+00
 4 15 02 10 19 15  0.0 1.089703291655D-04 9.094947017729D-13 6.840000000000D+04
    2.111632128906D+04-1.334741592407D+00 9.313225746155D-10 0.000000000000D+00
   -8.732766113281D+03 8.034420013428D-01-1.862645149231D-09 6.000000000000D+00
   -1.132227197266D+04-3.107451438904D+00 1.862645149231D-09 0.000000000000D+00
 5 15 02 10 20 15  0.0 2.055428922176D-06 0.000000000000D+00 7.200000000000D+04
    1.776934375000D+04-6.848211288452D-01 0.000000000000D+00 0.000000000000D+00
   -1.699250292969D+04 6.458158493042D-01-1.862645149231D-09 1.000000000000D+00
   -6.826030761719D+03-3.397068977356D+00 9.313225746155D-10 0.000000000000D+00
 6 15 02 10 20 45  0.0 6.235111504793D-05 0.000000000000D+00 7.380000000000D+04
    1.055821582031D+04 2.667083740234D-01 9.313225746155D-10 0.000000000000D+00
   -2.257349169922D+04-6.989212036133D-01-2.793967723846D-09-4.000000000000D+00
    5.354341308594D+03-3.462161064148D+00 0.000000000000D+00 0.000000000000D+00
 7 15 02 10 10 15  0.0-1.145321875811D-04-0.000000000000D+00 3.600000000000D+04
    2.442694335938D+03-1.497983932495D-01 0.000000000000D+00 0.000000000000D+00
    2.205407324219D+04 1.718736648560D+00 2.793967723846D-09 5.000000000000D+00
    1.259143115234D+04-2.988731384277D+00-0.000000000000D+00 0.000000000000D+00
 8 15 02 10 12 45  0.0-2.626143395901D-05 0.000000000000D+00 4.500000000000D+04
    1.163798876953D+04 7.274341583252D-02 1.862645149231D-09 0.000000000000D+00
    2.268652490234D+04-2.031545639038D-01 1.862645149231D-09 6.000000000000D+00
   -1.011202636719D+03-3.563407897949D+00 9.313225746155D-10 0.000000000000D+00
 9 15 02 10 23 45  0.0-4.666857421398D-06 9.094947017729D-13 8.460000000000D+04
    2.148179589844D+04 1.859278678894D+00 0.000000000000D+00 0.000000000000D+00
   -2.825698242188D+02 3.885784149170D-01 0.000000000000D+00-2.000000000000D+00
    1.381900146484D+04-2.868096351624D+00-9.313225746155D-10 0.000000000000D+00
10 15 02 10 23 45  0.0 7.776543498039D-06 0.000000000000D+00 8.460000000000D+04
    7.056253906250D+03 3.026748657227D+00 0.000000000000D+00 0.000000000000D+00
   -8.612916015625D+03 8.717641830444D-01-9.313225746155D-10-7.000000000000D+00
    2.292562841797D+04-6.098146438599D-01-9.313225746155D-10 0.000000000000D+00
11 15 02 10 14 15  0.0 7.646158337593D-07 9.094947017729D-13 5.040000000000D+04
   -5.139513671875D+03-2.740682601929D+00 0.000000000000D+00 0.000000000000D+00
    1.252287402344D+04 1.130582809448D+00 0.000000000000D+00 0.000000000000D+00
    2.164050292969D+04-1.296860694885D+00-9.313225746155D-10 0.000000000000D+00
12 15 02 10 16 15  0.0-5.888752639294D-06 0.000000000000D+00 5.760000000000D+04
   -3.644053710938D+03-1.489718437195D+00-0.000000000000D+00 0.000000000000D+00
    1.759682421875D+04 1.984298706055D+00 0.000000000000D+00-1.000000000000D+00
    1.800605517578D+04-2.251252174377D+00-9.313225746155D-10 0.000000000000D+00
13 15 02 10 18 15  0.0-4.713237285614D-04-9.094947017729D-13 6.480000000000D+04
    2.363846191406D+03-9.065437316895D-02-0.000000000000D+00 0.000000000000D+00
    2.202418750000D+04 1.742101669312D+00 0.000000000000D+00-2.000000000000D+00
    1.263741259766D+04-3.014966011047D+00-9.313225746155D-10 0.000000000000D+00
14 15 02 10 20 45  0.0 1.299316063523D-04 3.637978807092D-12 7.380000000000D+04
    1.175285791016D+04 1.656961441040D-01-9.313225746155D-10 0.000000000000D+00
    2.259070996094D+04-1.922206878662D-01 1.862645149231D-09-7.000000000000D+00
   -6.818266601563D+02-3.609960556030D+00 0.000000000000D+00 0.000000000000D+00
15 15 02 10 22 45  0.0 3.881566226482D-05 9.094947017729D-13 8.100000000000D+04
    1.779442382813D+04-9.527502059937D-01-0.000000000000D+00 0.000000000000D+00
    1.586571533203D+04-8.583660125732D-01 2.793967723846D-09 0.000000000000D+00
   -9.212785156250D+03-3.304773330688D+00 9.313225746155D-10 0.000000000000D+00
16 15 02 10 23 45  0.0-2.180039882660D-05 9.094947017729D-13 8.460000000000D+04
    2.388096142578D+04-2.984809875488D-01 0.000000000000D+00 0.000000000000D+00
    8.434019042969D+03-2.819089889526D-01 1.862645149231D-09-1.000000000000D+00
   -2.702717285156D+03-3.564984321594D+00 0.000000000000D+00 0.000000000000D+00
17 15 02 10 22 15  0.0 1.484863460064D-04 9.094947017729D-13 7.920000000000D+04
   -5.320311035156D+03-2.728370666504D+00 9.313225746155D-10 0.000000000000D+00
    1.267504003906D+04 1.096477508545D+00 0.000000000000D+00 4.000000000000D+00
    2.150982519531D+04-1.325879096985D+00-2.793967723846D-09 0.000000000000D+00
18 15 02 10 23 45  0.0 3.734882920980D-05 1.818989403546D-12 8.460000000000D+04
   -1.402989746094D+03-2.019743919373D+00 9.313225746155D-10 0.000000000000D+00
    1.469507666016D+04 2.009275436401D+00 0.000000000000D+00-3.000000000000D+00
    2.083889892578D+04-1.547956466675D+00-2.793967723846D-09 0.000000000000D+00
19 15 02 10 23 45  0.0-1.180050894618D-04-9.094947017729D-13 8.460000000000D+04
    1.421892285156D+04-2.195370674133D+00 0.000000000000D+00 0.000000000000D+00
    3.040766601563D+02 1.897282600403D+00-0.000000000000D+00 3.000000000000D+00
    2.118110058594D+04 1.446542739868D+00-1.862645149231D-09 0.000000000000D+00
20 15 02 10 23 45  0.0-1.577576622367D-04-1.818989403546D-12 8.460000000000D+04
    2.016712353516D+04-9.709501266479D-01-0.000000000000D+00 0.000000000000D+00
   -1.313679931641D+04 6.390514373779D-01-0.000000000000D+00 2.000000000000D+00
    8.380467773438D+03 3.347184181213D+00 0.000000000000D+00 0.000000000000D+00
21 15 02 10 08 15  0.0-1.891516149044D-06 1.818989403546D-12 2.880000000000D+04
    2.201819482422D+04-1.273550033569D+00-0.000000000000D+00 0.000000000000D+00
    8.494441894531D+03-3.898372650146D-01-0.000000000000D+00 4.000000000000D+00
   -9.637967773438D+03-3.253486633301D+00 0.000000000000D+00 0.000000000000D+00
22 15 02 10 09 45  0.0 1.526111736894D-04 1.818989403546D-12 3.420000000000D+04
    2.309620947266D+04-1.502222061157D+00-0.000000000000D+00 0.000000000000D+00
    6.555615234375D+01 1.537046432495D-01 0.000000000000D+00-3.000000000000D+00
   -1.097007568359D+04-3.146947860718D+00 0.000000000000D+00 0.000000000000D+00
23 15 02 10 18 45  0.0 3.797095268965D-05-3.637978807092D-12 6.660000000000D+04
   -5.419460937500D+03-2.685441017151D+00 0.000000000000D+00 0.000000000000D+00
    9.311956542969D+03-1.679612159729D+00 9.313225746155D-10 3.000000000000D+00
    2.311924609375D+04 4.676151275635D-02-1.862645149231D-09 0.000000000000D+00
24 15 02 10 20 15  0.0-1.210505142808D-04-0.000000000000D+00 7.200000000000D+04
   -3.768377929688D+03-3.120328903198D+00 0.000000000000D+00 0.000000000000D+00
    1.024654150391D+04-5.026178359985D-01 9.313225746155D-10 2.000000000000D+00
    2.303631738281D+04-2.861890792847D-01-2.793967723846D-09 0.000000000000D+00
 9 15 02 11 00 15  0.0-4.664994776249D-06 9.094947017729D-13 0.000000000000D+00
    2.420834912109D+04 1.137859344482D+00 0.000000000000D+00 0.000000000000D+00
    3.403515625000D+01-6.899833679199D-03 9.313225746155D-10-2.000000000000D+00
    8.191055664063D+03-3.344662666321D+00-0.000000000000D+00 0.000000000000D+00
10 15 02 11 00 15  0.0 7.777474820614D-06 0.000000000000D+00 0.000000000000D+00
    1.240081250000D+04 2.859044075012D+00 0.000000000000D+00 0.000000000000D+00
   -7.503668945313D+03 3.618946075439D-01-9.313225746155D-10-7.000000000000D+00
    2.095352587891D+04-1.567306518555D+00-9.313225746155D-10 0.000000000000D+00
16 15 02 11 00 15  0.0-2.179853618145D-05 9.094947017729D-13 0.000000000000D+00
    2.254797851563D+04-1.178410530090D+00 0.000000000000D+00 0.000000000000D+00
    7.815844238281D+03-3.627605438232D-01 1.862645149231D-09-1.000000000000D+00
   -8.931524414063D+03-3.310845375061D+00 9.313225746155D-10 0.000000000000D+00
19 15 02 11 00 15  0.0-1.180069521070D-04-9.094947017729D-13 0.000000000000D+00
    1.036658642578D+04-2.041909217834D+00 0.000000000000D+00 0.000000000000D+00
    4.184821777344D+03 2.386129379272D+00-0.000000000000D+00 3.000000000000D+00
    2.293303027344D+04 4.874229431152D-01-1.862645149231D-09 0.000000000000D+00
20 15 02 11 00 15  0.0-1.577613875270D-04-1.818989403546D-12 0.000000000000D+00
    1.803386523438D+04-1.355246543884D+00-0.000000000000D+00 0.000000000000D+00
   -1.133737451172D+04 1.366957664490D+00-0.000000000000D+00 2.000000000000D+00
    1.400258056641D+04 2.859013557434D+00-0.000000000000D+00 0.000000000000D+00
